[{"OBJECT_NAME":"STARLINK-32956","OBJECT_ID":"2025-076B","EPOCH":"2026-03-09T10:12:34.799328","MEAN_MOTION":15.27560542,"ECCENTRICITY":8.623e-5,"INCLINATION":42.9961,"RA_OF_ASC_NODE":326.4034,"ARG_OF_PERICENTER":33.0326,"MEAN_ANOMALY":327.0579,"EPHEMERIS_TYPE":0,"CLASSIFICATION_TYPE":"U","NORAD_CAT_ID":63570,"ELEMENT_SET_NO":999,"REV_AT_EPOCH":5174,"BSTAR":0.0010953967,"MEAN_MOTION_DOT":0.00029986,"MEAN_MOTION_DDOT":0},{"OBJECT_NAME":"ELECTRON KICK STAGE R\/B","OBJECT_ID":"2024-047B","EPOCH":"2026-03-09T21:11:54.433824","MEAN_MOTION":15.27307897,"ECCENTRICITY":0.00092426,"INCLINATION":97.6338,"RA_OF_ASC_NODE":46.9382,"ARG_OF_PERICENTER":20.6031,"MEAN_ANOMALY":339.5579,"EPHEMERIS_TYPE":0,"CLASSIFICATION_TYPE":"U","NORAD_CAT_ID":59225,"ELEMENT_SET_NO":999,"REV_AT_EPOCH":10999,"BSTAR":0.00091229405,"MEAN_MOTION_DOT":0.00024409,"MEAN_MOTION_DDOT":0}]
